#cV2025  9 28  0  0  0.00000000    5041   SLR  ECEF FIT  ASI
## 2386      0.00000000   120.00000000 60946 0.0000000000000
+    1   L52  0  0  0  0  0  0  0  0  0  0  0  0  0  0  0  0
+          0  0  0  0  0  0  0  0  0  0  0  0  0  0  0  0  0
+          0  0  0  0  0  0  0  0  0  0  0  0  0  0  0  0  0
+          0  0  0  0  0  0  0  0  0  0  0  0  0  0  0  0  0
+          0  0  0  0  0  0  0  0  0  0  0  0  0  0  0  0  0
++         0  0  0  0  0  0  0  0  0  0  0  0  0  0  0  0  0
++         0  0  0  0  0  0  0  0  0  0  0  0  0  0  0  0  0
++         0  0  0  0  0  0  0  0  0  0  0  0  0  0  0  0  0
++         0  0  0  0  0  0  0  0  0  0  0  0  0  0  0  0  0
++         0  0  0  0  0  0  0  0  0  0  0  0  0  0  0  0  0
%c L  cc UTC ccc cccc cccc cccc cccc ccccc ccccc ccccc ccccc
%c cc cc ccc ccc cccc cccc cccc cccc ccccc ccccc ccccc ccccc
%f  0.0000000  0.000000000  0.00000000000  0.000000000000000
%f  0.0000000  0.000000000  0.00000000000  0.000000000000000
%i    0    0    0    0      0      0      0      0         0
%i    0    0    0    0      0      0      0      0         0
/* For a generic SP3c orbit file "asi.orb.yymmdd.v#.sp3c"   
/*                    the reference system is SLRF2020      
/*                                                          
/*                                                          
*  2025 10  3  3 12  0.00000000
PL52  11271.953350   3624.198091   2380.026255 999999.999999
VL52 -17442.855713  22787.398060  44266.106660 999999.999999
*  2025 10  3  3 14  0.00000000
PL52  11047.171419   3893.652450   2907.046263 999999.999999
VL52 -20013.851137  22116.884205  43546.405378 999999.999999
*  2025 10  3  3 16  0.00000000
PL52  10791.803961   4154.890994   3424.564199 999999.999999
VL52 -22539.088852  21418.290399  42682.773220 999999.999999
*  2025 10  3  3 18  0.00000000
PL52  10506.448682   4407.583749   3930.866368 999999.999999
VL52 -25010.480514  20692.778556  41677.543181 999999.999999
*  2025 10  3  3 20  0.00000000
PL52  10191.799772   4651.414591   4424.270203 999999.999999
VL52 -27420.040159  19941.494297  40533.570285 999999.999999
*  2025 10  3  3 22  0.00000000
PL52   9848.646463   4886.081040   4903.130514 999999.999999
VL52 -29759.918531  19165.566300  39254.227389 999999.999999
*  2025 10  3  3 24  0.00000000
PL52   9477.871188   5111.294056   5365.845656 999999.999999
VL52 -32022.437512  18366.105889  37843.398326 999999.999999
*  2025 10  3  3 26  0.00000000
PL52   9080.447319   5326.777830   5810.863611 999999.999999
VL52 -34200.124408  17544.206879  36305.468333 999999.999999
*  2025 10  3  3 28  0.00000000
PL52   8657.436496   5532.269575   6236.687933 999999.999999
VL52 -36285.745858  16700.945659  34645.311765 999999.999999
*  2025 10  3  3 30  0.00000000
PL52   8209.985559   5727.519317   6641.883526 999999.999999
VL52 -38272.341094  15837.381532  32868.277083 999999.999999
*  2025 10  3  3 32  0.00000000
PL52   7739.323078   5912.289694   7025.082237 999999.999999
VL52 -40153.254324  14954.557280  30980.169185 999999.999999
*  2025 10  3  3 34  0.00000000
PL52   7246.755505   6086.355763   7384.988208 999999.999999
VL52 -41922.165966  14053.499977  28987.229116 999999.999999
*  2025 10  3  3 36  0.00000000
PL52   6733.662962   6249.504814   7720.382977 999999.999999
VL52 -43573.122508  13135.222030  26896.111257 999999.999999
*  2025 10  3  3 38  0.00000000
PL52   6201.494673   6401.536208   8030.130292 999999.999999
VL52 -45100.564755  12200.722436  24713.858117 999999.999999
*  2025 10  3  3 40  0.00000000
PL52   5651.764072   6542.261217   8313.180603 999999.999999
VL52 -46499.354236  11250.988259  22447.872853 999999.999999
*  2025 10  3  3 42  0.00000000
PL52   5086.043612   6671.502898   8568.575212 999999.999999
VL52 -47764.797569  10286.996311  20105.889686 999999.999999
*  2025 10  3  3 44  0.00000000
PL52   4505.959278   6789.095974   8795.450065 999999.999999
VL52 -48892.668599   9309.715023  17695.942410 999999.999999
*  2025 10  3  3 46  0.00000000
PL52   3913.184872   6894.886752   8993.039145 999999.999999
VL52 -49879.228143   8320.106497  15226.331174 999999.999999
*  2025 10  3  3 48  0.00000000
PL52   3309.436052   6988.733056   9160.677460 999999.999999
VL52 -50721.241186   7319.128708  12705.587763 999999.999999
*  2025 10  3  3 50  0.00000000
PL52   2696.464199   7070.504191   9297.803612 999999.999999
VL52 -51415.991419   6307.737859  10142.439618 999999.999999
*  2025 10  3  3 52  0.00000000
PL52   2076.050117   7140.080942   9403.961920 999999.999999
VL52 -51961.293011   5286.890842   7545.772811 999999.999999
*  2025 10  3  3 54  0.00000000
PL52   1449.997612   7197.355590   9478.804101 999999.999999
VL52 -52355.499543   4257.547811   4924.594247 999999.999999
*  2025 10  3  3 56  0.00000000
PL52    820.126978   7242.231971   9522.090485 999999.999999
VL52 -52597.510048   3220.674811   2287.993330 999999.999999
*  2025 10  3  3 58  0.00000000
PL52    188.268431   7274.625565   9533.690782 999999.999999
VL52 -52686.772141   2177.246468   -354.896648 999999.999999
*  2025 10  3  4  0  0.00000000
PL52   -443.744479   7294.463610   9513.584366 999999.999999
VL52 -52623.282243   1128.248702  -2994.937133 999999.999999
*  2025 10  3  4  2  0.00000000
PL52  -1074.081440   7301.685257   9461.860117 999999.999999
VL52 -52407.582913     74.681429  -5623.022702 999999.999999
*  2025 10  3  4  4  0.00000000
PL52  -1700.921900   7296.241754   9378.715789 999999.999999
VL52 -52040.757359   -982.438756  -8230.118985 999999.999999
*  2025 10  3  4  6  0.00000000
PL52  -2322.461511   7278.096659   9264.456938 999999.999999
VL52 -51524.421178  -2042.075958 -10807.299867 999999.999999
*  2025 10  3  4  8  0.00000000
PL52  -2936.918453   7247.226094   9119.495400 999999.999999
VL52 -50860.711453  -3103.172446 -13345.783755 999999.999999
*  2025 10  3  4 10  0.00000000
PL52  -3542.539613   7203.619012   8944.347348 999999.999999
VL52 -50052.273288  -4164.646221 -15836.968690 999999.999999
*  2025 10  3  4 12  0.00000000
PL52  -4137.606590   7147.277509   8739.630929 999999.999999
VL52 -49102.243938  -5225.388727 -18272.466108 999999.999999
*  2025 10  3  4 14  0.00000000
PL52  -4720.441494   7078.217156   8506.063514 999999.999999
VL52 -48014.234670  -6284.262714 -20644.133070 999999.999999
*  2025 10  3  4 16  0.00000000
PL52  -5289.412511   6996.467349   8244.458559 999999.999999
VL52 -46792.310522  -7340.100292 -22944.102784 999999.999999
*  2025 10  3  4 18  0.00000000
PL52  -5842.939225   6902.071694   7955.722121 999999.999999
VL52 -45440.968134  -8391.701173 -25164.813276 999999.999999
*  2025 10  3  4 20  0.00000000
PL52  -6379.497645   6795.088403   7640.849039 999999.999999
VL52 -43965.111837  -9437.831136 -27299.034077 999999.999999
*  2025 10  3  4 22  0.00000000
PL52  -6897.624957   6675.590707   7300.918803 999999.999999
VL52 -42370.028205 -10477.220721 -29339.890804 999999.999999
*  2025 10  3  4 24  0.00000000
PL52  -7395.923942   6543.667289   6937.091145 999999.999999
VL52 -40661.359269 -11508.564159 -31280.887561 999999.999999
*  2025 10  3  4 26  0.00000000
PL52  -7873.067082   6399.422722   6550.601378 999999.999999
VL52 -38845.074607 -12530.518556 -33115.927070 999999.999999
*  2025 10  3  4 28  0.00000000
PL52  -8327.800312   6242.977920   6142.755497 999999.999999
VL52 -36927.442529 -13541.703335 -34839.328504 999999.999999
*  2025 10  3  4 30  0.00000000
PL52  -8758.946435   6074.470593   5714.925092 999999.999999
VL52 -34915.000559 -14540.699949 -36445.842980 999999.999999
*  2025 10  3  4 32  0.00000000
PL52  -9165.408169   5894.055698   5268.542080 999999.999999
VL52 -32814.525443 -15526.051860 -37930.666724 999999.999999
*  2025 10  3  4 34  0.00000000
PL52  -9546.170835   5701.905902   4805.093297 999999.999999
VL52 -30633.002864 -16496.264806 -39289.451900 999999.999999
*  2025 10  3  4 36  0.00000000
PL52  -9900.304688   5498.212023   4326.114975 999999.999999
VL52 -28377.597087 -17449.807347 -40518.315167 999999.999999
*  2025 10  3  4 38  0.00000000
PL52 -10226.966870   5283.183476   3833.187125 999999.999999
VL52 -26055.620700 -18385.111701 -41613.843988 999999.999999
*  2025 10  3  4 40  0.00000000
PL52 -10525.403017   5057.048704   3327.927862 999999.999999
VL52 -23674.504645 -19300.574869 -42573.100772 999999.999999
*  2025 10  3  4 42  0.00000000
PL52 -10794.948496   4820.055589   2811.987691 999999.999999
VL52 -21241.768700 -20194.560046 -43393.624924 999999.999999
*  2025 10  3  4 44  0.00000000
PL52 -11035.029302   4572.471849   2287.043782 999999.999999
VL52 -18764.992559 -21065.398323 -44073.432892 999999.999999
*  2025 10  3  4 46  0.00000000
PL52 -11245.162603   4314.585411   1754.794252 999999.999999
VL52 -16251.787667 -21911.390679 -44611.016323 999999.999999
*  2025 10  3  4 48  0.00000000
PL52 -11424.956959   4046.704762   1216.952487 999999.999999
VL52 -13709.769919 -22730.810251 -45005.338430 999999.999999
*  2025 10  3  4 50  0.00000000
PL52 -11574.112213   3769.159263    675.241509 999999.999999
VL52 -11146.533352 -23521.904888 -45255.828699 999999.999999
*  2025 10  3  4 52  0.00000000
PL52 -11692.419081   3482.299441    131.388421 999999.999999
VL52  -8569.624916 -24282.899984 -45362.376047 999999.999999
*  2025 10  3  4 54  0.00000000
PL52 -11779.758439   3186.497236   -412.881056 999999.999999
VL52  -5986.520410 -25012.001589 -45325.320582 999999.999999
*  2025 10  3  4 56  0.00000000
PL52 -11836.100329   2882.146215   -955.847941 999999.999999
VL52  -3404.601658 -25707.399783 -45145.444076 999999.999999
*  2025 10  3  4 58  0.00000000
PL52 -11861.502704   2569.661743  -1495.805234 999999.999999
VL52   -831.134963 -26367.272328 -44823.959296 999999.999999
*  2025 10  3  5  0  0.00000000
PL52 -11856.109918   2249.481104  -2031.063015 999999.999999
VL52   1726.749108 -26989.788588 -44362.498316 999999.999999
*  2025 10  3  5  2  0.00000000
PL52 -11820.150982   1922.063581  -2559.953401 999999.999999
VL52   4262.074596 -27573.113704 -43763.099953 999999.999999
EOF
